[{"OBJECT_NAME":"OBJECT AL","OBJECT_ID":"2023-085AL","EPOCH":"2026-03-09T22:26:04.970400","MEAN_MOTION":15.31857284,"ECCENTRICITY":0.000802,"INCLINATION":97.4839,"RA_OF_ASC_NODE":180.0127,"ARG_OF_PERICENTER":78.7242,"MEAN_ANOMALY":281.49,"EPHEMERIS_TYPE":0,"CLASSIFICATION_TYPE":"U","NORAD_CAT_ID":57038,"ELEMENT_SET_NO":999,"REV_AT_EPOCH":15154,"BSTAR":0.0006591637,"MEAN_MOTION_DOT":0.00020246,"MEAN_MOTION_DDOT":0},{"OBJECT_NAME":"STARLINK-33598","OBJECT_ID":"2025-015P","EPOCH":"2026-03-09T22:42:49.143168","MEAN_MOTION":15.30220349,"ECCENTRICITY":9.91e-5,"INCLINATION":53.161,"RA_OF_ASC_NODE":321.0328,"ARG_OF_PERICENTER":137.1806,"MEAN_ANOMALY":222.9272,"EPHEMERIS_TYPE":0,"CLASSIFICATION_TYPE":"U","NORAD_CAT_ID":62771,"ELEMENT_SET_NO":999,"REV_AT_EPOCH":6452,"BSTAR":0.0012316742,"MEAN_MOTION_DOT":0.00036321,"MEAN_MOTION_DDOT":0}]
